HAWK-C                  
1 43799U 18099AT  26068.67261865  .00009431  00000+0  35663-3 0  9994
2 43799  97.4027 122.6817 0040363 277.4052  82.2601 15.26407167398720
STARLINK-36396          
1 67494U 26012B   26068.05633673  .00032110  00000+0  11705-2 0  9998
2 67494  42.9987 318.1145 0001457  44.7291 315.3678 15.27601176  7666
